[{"OBJECT_NAME":"STARLINK-36140","OBJECT_ID":"2025-294E","EPOCH":"2026-03-09T22:31:06.716352","MEAN_MOTION":15.27574492,"ECCENTRICITY":0.00012326,"INCLINATION":43.0008,"RA_OF_ASC_NODE":36.9792,"ARG_OF_PERICENTER":266.4315,"MEAN_ANOMALY":93.6396,"EPHEMERIS_TYPE":0,"CLASSIFICATION_TYPE":"U","NORAD_CAT_ID":67034,"ELEMENT_SET_NO":999,"REV_AT_EPOCH":1483,"BSTAR":0.0011873667,"MEAN_MOTION_DOT":0.0003255,"MEAN_MOTION_DDOT":0},{"OBJECT_NAME":"OBJECT D","OBJECT_ID":"2021-102D","EPOCH":"2026-03-09T14:47:14.426880","MEAN_MOTION":15.2846442,"ECCENTRICITY":0.0009157,"INCLINATION":97.3342,"RA_OF_ASC_NODE":112.2633,"ARG_OF_PERICENTER":187.6206,"MEAN_ANOMALY":172.4897,"EPHEMERIS_TYPE":0,"CLASSIFICATION_TYPE":"U","NORAD_CAT_ID":49398,"ELEMENT_SET_NO":999,"REV_AT_EPOCH":23880,"BSTAR":0.00046011,"MEAN_MOTION_DOT":0.00012697,"MEAN_MOTION_DDOT":0}]
